[
    {
        "Altitude(m)": 575102.1358348372,
        "Argument of Periapsis(deg)": 0.0,
        "Eccentricity": 0.0,
        "Inclination(deg)": 97.0,
        "Latitude(deg)": -31.042972923716114,
        "Longitude(deg)": -95.75436314374382,
        "Mean Anomaly(deg)": 328.9655,
        "RAAN(deg)": 0.0,
        "Satellite Name": "Starlink Shell 3 1637",
        "Satellite Number": 1637,
        "Semi-Major Axis(m)": 6938478.169268562,
        "Time(s)": 0
    },
    {
        "Altitude(m)": 574859.9721843507,
        "Argument of Periapsis(deg)": -0.0003965466804030246,
        "Eccentricity": 0.0,
        "Inclination(deg)": 97.0,
        "Latitude(deg)": -30.42298046660884,
        "Longitude(deg)": -95.89878440248191,
        "Mean Anomaly(deg)": 329.59097619770506,
        "RAAN(deg)": 0.00010433427400896087,
        "Satellite Name": "Starlink Shell 3 1637",
        "Satellite Number": 1637,
        "Semi-Major Axis(m)": 6938478.169268562,
        "Time(s)": 10
    },
    {
        "Altitude(m)": 574619.4083246302,
        "Argument of Periapsis(deg)": -0.0007930933608060492,
        "Eccentricity": 0.0,
        "Inclination(deg)": 97.0,
        "Latitude(deg)": -29.802821293489693,
        "Longitude(deg)": -96.04192215667369,
        "Mean Anomaly(deg)": 330.2164523954101,
        "RAAN(deg)": 0.00020866854801792175,
        "Satellite Name": "Starlink Shell 3 1637",
        "Satellite Number": 1637,
        "Semi-Major Axis(m)": 6938478.169268562,
        "Time(s)": 20
    },
    {
        "Altitude(m)": 574380.5343476692,
        "Argument of Periapsis(deg)": -0.001189640041209074,
        "Eccentricity": 0.0,
        "Inclination(deg)": 97.0,
        "Latitude(deg)": -29.182499105233116,
        "Longitude(deg)": -96.18382352164423,
        "Mean Anomaly(deg)": 330.84192859311514,
        "RAAN(deg)": 0.0003130028220268826,
        "Satellite Name": "Starlink Shell 3 1637",
        "Satellite Number": 1637,
        "Semi-Major Axis(m)": 6938478.169268562,
        "Time(s)": 30
    },
    {
        "Altitude(m)": 574143.4394138617,
        "Argument of Periapsis(deg)": -0.0015861867216120985,
        "Eccentricity": 0.0,
        "Inclination(deg)": 97.0,
        "Latitude(deg)": -28.56201753632105,
        "Longitude(deg)": -96.324533421143,
        "Mean Anomaly(deg)": 331.4674047908202,
        "RAAN(deg)": 0.0004173370960358435,
        "Satellite Name": "Starlink Shell 3 1637",
        "Satellite Number": 1637,
        "Semi-Major Axis(m)": 6938478.169268562,
        "Time(s)": 40
    },
    {
        "Altitude(m)": 573908.2117112592,
        "Argument of Periapsis(deg)": -0.0019827334020151234,
        "Eccentricity": 0.0,
        "Inclination(deg)": 97.0,
        "Latitude(deg)": -27.941380159858376,
        "Longitude(deg)": -96.46409568302224,
        "Mean Anomaly(deg)": 332.0928809885252,
        "RAAN(deg)": 0.0005216713700448044,
        "Satellite Name": "Starlink Shell 3 1637",
        "Satellite Number": 1637,
        "Semi-Major Axis(m)": 6938478.169268562,
        "Time(s)": 50
    },
    {
        "Altitude(m)": 573674.9384152123,
        "Argument of Periapsis(deg)": -0.002379280082418148,
        "Eccentricity": 0.0,
        "Inclination(deg)": 97.0,
        "Latitude(deg)": -27.32059049226185,
        "Longitude(deg)": -96.6025526171298,
        "Mean Anomaly(deg)": 332.71835718623026,
        "RAAN(deg)": 0.0006260056440537652,
        "Satellite Name": "Starlink Shell 3 1637",
        "Satellite Number": 1637,
        "Semi-Major Axis(m)": 6938478.169268562,
        "Time(s)": 60
    },
    {
        "Altitude(m)": 573443.705648495,
        "Argument of Periapsis(deg)": -0.002775826762821173,
        "Eccentricity": 0.0,
        "Inclination(deg)": 97.0,
        "Latitude(deg)": -26.699651997642817,
        "Longitude(deg)": -96.73994458862423,
        "Mean Anomaly(deg)": 333.3438333839353,
        "RAAN(deg)": 0.0007303399180627261,
        "Satellite Name": "Starlink Shell 3 1637",
        "Satellite Number": 1637,
        "Semi-Major Axis(m)": 6938478.169268562,
        "Time(s)": 70
    },
    {
        "Altitude(m)": 573214.5984419185,
        "Argument of Periapsis(deg)": -0.003172373443224197,
        "Eccentricity": 0.0,
        "Inclination(deg)": 97.0,
        "Latitude(deg)": -26.07856809190291,
        "Longitude(deg)": -96.87631109989385,
        "Mean Anomaly(deg)": 333.96930958164035,
        "RAAN(deg)": 0.000834674192071687,
        "Satellite Name": "Starlink Shell 3 1637",
        "Satellite Number": 1637,
        "Semi-Major Axis(m)": 6938478.169268562,
        "Time(s)": 80
    },
    {
        "Altitude(m)": 572987.7006954231,
        "Argument of Periapsis(deg)": -0.0035689201236272223,
        "Eccentricity": 0.0,
        "Inclination(deg)": 97.0,
        "Latitude(deg)": -25.457342146562723,
        "Longitude(deg)": -97.01169035561695,
        "Mean Anomaly(deg)": 334.59478577934544,
        "RAAN(deg)": 0.0009390084660806479,
        "Satellite Name": "Starlink Shell 3 1637",
        "Satellite Number": 1637,
        "Semi-Major Axis(m)": 6938478.169268562,
        "Time(s)": 90
    },
    {
        "Altitude(m)": 572763.0951397165,
        "Argument of Periapsis(deg)": -0.003965466804030247,
        "Eccentricity": 0.0,
        "Inclination(deg)": 97.0,
        "Latitude(deg)": -24.835977492338568,
        "Longitude(deg)": -97.14611882410016,
        "Mean Anomaly(deg)": 335.2202619770505,
        "RAAN(deg)": 0.0010433427400896088,
        "Satellite Name": "Starlink Shell 3 1637",
        "Satellite Number": 1637,
        "Semi-Major Axis(m)": 6938478.169268562,
        "Time(s)": 100
    },
    {
        "Altitude(m)": 572540.8632984064,
        "Argument of Periapsis(deg)": -0.004362013484433271,
        "Eccentricity": 0.0,
        "Inclination(deg)": 97.0,
        "Latitude(deg)": -24.214477422483533,
        "Longitude(deg)": -97.27963230801701,
        "Mean Anomaly(deg)": 335.84573817475547,
        "RAAN(deg)": 0.0011476770140985695,
        "Satellite Name": "Starlink Shell 3 1637",
        "Satellite Number": 1637,
        "Semi-Major Axis(m)": 6938478.169268562,
        "Time(s)": 110
    },
    {
        "Altitude(m)": 572321.0854507529,
        "Argument of Periapsis(deg)": -0.004758560164836296,
        "Eccentricity": 0.0,
        "Inclination(deg)": 97.0,
        "Latitude(deg)": -23.592845195907763,
        "Longitude(deg)": -97.41226549902328,
        "Mean Anomaly(deg)": 336.4712143724605,
        "RAAN(deg)": 0.0012520112881075304,
        "Satellite Name": "Starlink Shell 3 1637",
        "Satellite Number": 1637,
        "Semi-Major Axis(m)": 6938478.169268562,
        "Time(s)": 120
    },
    {
        "Altitude(m)": 572103.8405949727,
        "Argument of Periapsis(deg)": -0.005155106845239321,
        "Eccentricity": 0.0,
        "Inclination(deg)": 97.0,
        "Latitude(deg)": -22.971084040091554,
        "Longitude(deg)": -97.54405152933663,
        "Mean Anomaly(deg)": 337.09669057016555,
        "RAAN(deg)": 0.0013563455621164913,
        "Satellite Name": "Starlink Shell 3 1637",
        "Satellite Number": 1637,
        "Semi-Major Axis(m)": 6938478.169268562,
        "Time(s)": 130
    },
    {
        "Altitude(m)": 571889.2064121302,
        "Argument of Periapsis(deg)": -0.005551653525642346,
        "Eccentricity": 0.0,
        "Inclination(deg)": 97.0,
        "Latitude(deg)": -22.349197153802734,
        "Longitude(deg)": -97.67502303335083,
        "Mean Anomaly(deg)": 337.7221667678706,
        "RAAN(deg)": 0.0014606798361254522,
        "Satellite Name": "Starlink Shell 3 1637",
        "Satellite Number": 1637,
        "Semi-Major Axis(m)": 6938478.169268562,
        "Time(s)": 140
    },
    {
        "Altitude(m)": 571677.2592306995,
        "Argument of Periapsis(deg)": -0.005948200206045371,
        "Eccentricity": 0.0,
        "Inclination(deg)": 97.0,
        "Latitude(deg)": -21.727187709631174,
        "Longitude(deg)": -97.80521169371926,
        "Mean Anomaly(deg)": 338.34764296557563,
        "RAAN(deg)": 0.0015650141101344129,
        "Satellite Name": "Starlink Shell 3 1637",
        "Satellite Number": 1637,
        "Semi-Major Axis(m)": 6938478.169268562,
        "Time(s)": 150
    },
    {
        "Altitude(m)": 571468.0739917113,
        "Argument of Periapsis(deg)": -0.006344746886448394,
        "Eccentricity": 0.0,
        "Inclination(deg)": 97.0,
        "Latitude(deg)": -21.105058856352645,
        "Longitude(deg)": -97.93464778495233,
        "Mean Anomaly(deg)": 338.9731191632807,
        "RAAN(deg)": 0.001669348384143374,
        "Satellite Name": "Starlink Shell 3 1637",
        "Satellite Number": 1637,
        "Semi-Major Axis(m)": 6938478.169268562,
        "Time(s)": 160
    },
    {
        "Altitude(m)": 571261.7242145994,
        "Argument of Periapsis(deg)": -0.00674129356685142,
        "Eccentricity": 0.0,
        "Inclination(deg)": 97.0,
        "Latitude(deg)": -20.482813721127982,
        "Longitude(deg)": -98.0633612275628,
        "Mean Anomaly(deg)": 339.59859536098577,
        "RAAN(deg)": 0.001773682658152335,
        "Satellite Name": "Starlink Shell 3 1637",
        "Satellite Number": 1637,
        "Semi-Major Axis(m)": 6938478.169268562,
        "Time(s)": 170
    },
    {
        "Altitude(m)": 571058.2819637251,
        "Argument of Periapsis(deg)": -0.007137840247254445,
        "Eccentricity": 0.0,
        "Inclination(deg)": 97.0,
        "Latitude(deg)": -19.860455411552348,
        "Longitude(deg)": -98.191381127158,
        "Mean Anomaly(deg)": 340.2240715586908,
        "RAAN(deg)": 0.0018780169321612958,
        "Satellite Name": "Starlink Shell 3 1637",
        "Satellite Number": 1637,
        "Semi-Major Axis(m)": 6938478.169268562,
        "Time(s)": 180
    }
]